start=new Date('2023-02-11T00:00:00.000Z').valueOf();
sats=[{"ECCENTRICITY":"0.00013020","TLE_LINE1":"1 52282U 22041X   23041.88107077  .00001408  00000-0  10652-3 0  9996","MEAN_ELEMENT_THEORY":"SGP4","MEAN_MOTION_DOT":"0.00001408","ELEMENT_SET_NO":"999","MEAN_MOTION_DDOT":"0.0000000000000","TLE_LINE2":"2 52282  53.2178  99.6040 0001302  79.6297 280.4842 15.08837690 44992","RA_OF_ASC_NODE":"99.6040","ARG_OF_PERICENTER":"79.6297","FILE":"3785071","REF_FRAME":"TEME","NORAD_CAT_ID":"52282","TIME_SYSTEM":"UTC","PERIAPSIS":"538.852","LAUNCH_DATE":"2022-04-21","APOAPSIS":"540.653","CLASSIFICATION_TYPE":"U","OBJECT_NAME":"STARLINK-3783","BSTAR":"0.00010652000000","SEMIMAJOR_AXIS":"6917.887","DECAY_DATE":null,"MEAN_MOTION":"15.08837690","EPOCH":"2023-02-10T21:08:44.514528","EPHEMERIS_TYPE":"0","OBJECT_ID":"2022-041X","COUNTRY_CODE":"US","REV_AT_EPOCH":"4499","CENTER_NAME":"EARTH","OBJECT_TYPE":"PAYLOAD","GP_ID":"225071337","INCLINATION":"53.2178","SITE":"AFETR","RCS_SIZE":"LARGE","PERIOD":"95.438","MEAN_ANOMALY":"280.4842"},{"MEAN_ELEMENT_THEORY":"SGP4","TLE_LINE1":"1 52283U 22041Y   23041.89486777  .00002579  00000-0  18007-3 0  9997","MEAN_MOTION_DOT":"0.00002579","ECCENTRICITY":"0.00007940","ARG_OF_PERICENTER":"112.3414","RA_OF_ASC_NODE":"109.5537","NORAD_CAT_ID":"52283","TIME_SYSTEM":"UTC","FILE":"3785071","REF_FRAME":"TEME","TLE_LINE2":"2 52283  53.2134 109.5537 0000794 112.3414 247.7662 15.08841168 44864","ELEMENT_SET_NO":"999","MEAN_MOTION_DDOT":"0.0000000000000","EPOCH":"2023-02-10T21:28:36.575328","MEAN_MOTION":"15.08841168","DECAY_DATE":null,"OBJECT_ID":"2022-041Y","EPHEMERIS_TYPE":"0","APOAPSIS":"540.291","LAUNCH_DATE":"2022-04-21","PERIAPSIS":"539.193","BSTAR":"0.00018007000000","SEMIMAJOR_AXIS":"6917.877","OBJECT_NAME":"STARLINK-3789","CLASSIFICATION_TYPE":"U","GP_ID":"225071088","OBJECT_TYPE":"PAYLOAD","MEAN_ANOMALY":"247.7662","RCS_SIZE":"LARGE","PERIOD":"95.437","SITE":"AFETR","INCLINATION":"53.2134","CENTER_NAME":"EARTH","COUNTRY_CODE":"US","REV_AT_EPOCH":"4486"},{"GP_ID":"225072338","OBJECT_TYPE":"PAYLOAD","SITE":"AFETR","INCLINATION":"53.2182","RCS_SIZE":"LARGE","PERIOD":"95.438","MEAN_ANOMALY":"260.7887","CENTER_NAME":"EARTH","COUNTRY_CODE":"US","REV_AT_EPOCH":"4499","DECAY_DATE":null,"MEAN_MOTION":"15.08834797","EPOCH":"2023-02-10T20:58:08.886144","OBJECT_ID":"2022-041Z","EPHEMERIS_TYPE":"0","PERIAPSIS":"538.938","LAUNCH_DATE":"2022-04-21","APOAPSIS":"540.585","OBJECT_NAME":"STARLINK-3561","CLASSIFICATION_TYPE":"U","SEMIMAJOR_AXIS":"6917.896","BSTAR":"0.00008069000000","ARG_OF_PERICENTER":"99.3239","RA_OF_ASC_NODE":"99.6415","NORAD_CAT_ID":"52284","TIME_SYSTEM":"UTC","FILE":"3785071","REF_FRAME":"TEME","ELEMENT_SET_NO":"999","MEAN_MOTION_DDOT":"0.0000000000000","TLE_LINE2":"2 52284  53.2182  99.6415 0001190  99.3239 260.7887 15.08834797 44990","MEAN_ELEMENT_THEORY":"SGP4","TLE_LINE1":"1 52284U 22041Z   23041.87371396  .00000996  00000-0  80690-4 0  9995","MEAN_MOTION_DOT":"0.00000996","ECCENTRICITY":"0.00011900"},{"EPOCH":"2023-02-10T21:23:16.642176","MEAN_MOTION":"15.08833057","DECAY_DATE":null,"OBJECT_ID":"2022-041AA","EPHEMERIS_TYPE":"0","APOAPSIS":"542.649","LAUNCH_DATE":"2022-04-21","PERIAPSIS":"536.884","SEMIMAJOR_AXIS":"6917.902","BSTAR":"0.00000638210000","OBJECT_NAME":"STARLINK-3775","CLASSIFICATION_TYPE":"U","GP_ID":"225072585","OBJECT_TYPE":"PAYLOAD","PERIOD":"95.438","RCS_SIZE":"LARGE","MEAN_ANOMALY":"347.6150","INCLINATION":"53.2165","SITE":"AFETR","CENTER_NAME":"EARTH","REV_AT_EPOCH":"4486","COUNTRY_CODE":"US","TLE_LINE1":"1 52285U 22041AA  23041.89116484 -.00000188  00000-0  63821-5 0  9995","MEAN_ELEMENT_THEORY":"SGP4","MEAN_MOTION_DOT":"-0.00000188","ECCENTRICITY":"0.00041670","ARG_OF_PERICENTER":"12.4945","RA_OF_ASC_NODE":"109.5698","NORAD_CAT_ID":"52285","TIME_SYSTEM":"UTC","REF_FRAME":"TEME","FILE":"3785071","TLE_LINE2":"2 52285  53.2165 109.5698 0004167  12.4945 347.6150 15.08833057 44865","MEAN_MOTION_DDOT":"0.0000000000000","ELEMENT_SET_NO":"999"},{"NORAD_CAT_ID":"52286","TIME_SYSTEM":"UTC","FILE":"3785071","REF_FRAME":"TEME","ARG_OF_PERICENTER":"118.4004","RA_OF_ASC_NODE":"99.6713","ELEMENT_SET_NO":"999","MEAN_MOTION_DDOT":"0.0000000000000","TLE_LINE2":"2 52286  53.2189  99.6713 0001174 118.4004 241.7107 15.08837798 44993","MEAN_MOTION_DOT":"0.00001072","TLE_LINE1":"1 52286U 22041AB  23041.86634480  .00001072  00000-0  85404-4 0  9996","MEAN_ELEMENT_THEORY":"SGP4","ECCENTRICITY":"0.00011740","SITE":"AFETR","INCLINATION":"53.2189","PERIOD":"95.438","RCS_SIZE":"MEDIUM","MEAN_ANOMALY":"241.7107","GP_ID":"225070838","OBJECT_TYPE":"PAYLOAD","CENTER_NAME":"EARTH","REV_AT_EPOCH":"4499","COUNTRY_CODE":"US","OBJECT_ID":"2022-041AB","EPHEMERIS_TYPE":"0","DECAY_DATE":null,"EPOCH":"2023-02-10T20:47:32.190720","MEAN_MOTION":"15.08837798","OBJECT_NAME":"STARLINK-3802","CLASSIFICATION_TYPE":"U","SEMIMAJOR_AXIS":"6917.887","BSTAR":"0.00008540400000","PERIAPSIS":"538.940","LAUNCH_DATE":"2022-04-21","APOAPSIS":"540.564"},{"ECCENTRICITY":"0.00009900","MEAN_MOTION_DOT":"0.00001826","TLE_LINE1":"1 52287U 22041AC  23041.88383167  .00001826  00000-0  13277-3 0  9997","MEAN_ELEMENT_THEORY":"SGP4","MEAN_MOTION_DDOT":"0.0000000000000","ELEMENT_SET_NO":"999","TLE_LINE2":"2 52287  53.2166 109.6002 0000990  83.6341 276.4764 15.08835099 44866","NORAD_CAT_ID":"52287","TIME_SYSTEM":"UTC","FILE":"3785071","REF_FRAME":"TEME","ARG_OF_PERICENTER":"83.6341","RA_OF_ASC_NODE":"109.6002","CLASSIFICATION_TYPE":"U","OBJECT_NAME":"STARLINK-3822","SEMIMAJOR_AXIS":"6917.895","BSTAR":"0.00013277000000","PERIAPSIS":"539.075","APOAPSIS":"540.445","LAUNCH_DATE":"2022-04-21","OBJECT_ID":"2022-041AC","EPHEMERIS_TYPE":"0","DECAY_DATE":null,"EPOCH":"2023-02-10T21:12:43.056288","MEAN_MOTION":"15.08835099","CENTER_NAME":"EARTH","REV_AT_EPOCH":"4486","COUNTRY_CODE":"US","INCLINATION":"53.2166","SITE":"AFETR","MEAN_ANOMALY":"276.4764","RCS_SIZE":"LARGE","PERIOD":"95.438","GP_ID":"225071588","OBJECT_TYPE":"PAYLOAD"},{"SITE":"AFETR","INCLINATION":"53.2152","RCS_SIZE":"LARGE","MEAN_ANOMALY":"286.2493","PERIOD":"95.437","GP_ID":"225071839","OBJECT_TYPE":"PAYLOAD","CENTER_NAME":"EARTH","REV_AT_EPOCH":"4499","COUNTRY_CODE":"US","OBJECT_ID":"2022-041AD","EPHEMERIS_TYPE":"0","DECAY_DATE":null,"EPOCH":"2023-02-10T20:42:15.010272","MEAN_MOTION":"15.08842038","OBJECT_NAME":"STARLINK-3776","CLASSIFICATION_TYPE":"U","SEMIMAJOR_AXIS":"6917.874","BSTAR":"0.00031553000000","PERIAPSIS":"538.698","APOAPSIS":"540.780","LAUNCH_DATE":"2022-04-21","NORAD_CAT_ID":"52288","TIME_SYSTEM":"UTC","REF_FRAME":"TEME","FILE":"3785071","ARG_OF_PERICENTER":"73.8665","RA_OF_ASC_NODE":"99.6938","ELEMENT_SET_NO":"999","MEAN_MOTION_DDOT":"0.0000000000000","TLE_LINE2":"2 52288  53.2152  99.6938 0001505  73.8665 286.2493 15.08842038 44994","MEAN_MOTION_DOT":"0.00004738","TLE_LINE1":"1 52288U 22041AD  23041.86267373  .00004738  00000-0  31553-3 0  9998","MEAN_ELEMENT_THEORY":"SGP4","ECCENTRICITY":"0.00015050"},{"ECCENTRICITY":"0.00013800","TLE_LINE1":"1 52289U 22041AE  23041.87739729  .00016728  00000-0  10665-2 0  9991","MEAN_ELEMENT_THEORY":"SGP4","MEAN_MOTION_DOT":"0.00016728","ELEMENT_SET_NO":"999","MEAN_MOTION_DDOT":"0.0000000000000","TLE_LINE2":"2 52289  53.2163  99.6196 0001380  74.9183 285.1962 15.08844408 44993","RA_OF_ASC_NODE":"99.6196","ARG_OF_PERICENTER":"74.9183","FILE":"3785071","REF_FRAME":"TEME","NORAD_CAT_ID":"52289","TIME_SYSTEM":"UTC","PERIAPSIS":"538.777","APOAPSIS":"540.687","LAUNCH_DATE":"2022-04-21","CLASSIFICATION_TYPE":"U","OBJECT_NAME":"STARLINK-3751","SEMIMAJOR_AXIS":"6917.867","BSTAR":"0.00106650000000","DECAY_DATE":null,"EPOCH":"2023-02-10T21:03:27.125856","MEAN_MOTION":"15.08844408","EPHEMERIS_TYPE":"0","OBJECT_ID":"2022-041AE","REV_AT_EPOCH":"4499","COUNTRY_CODE":"US","CENTER_NAME":"EARTH","OBJECT_TYPE":"PAYLOAD","GP_ID":"225072086","INCLINATION":"53.2163","SITE":"AFETR","RCS_SIZE":"LARGE","MEAN_ANOMALY":"285.1962","PERIOD":"95.437"},{"COUNTRY_CODE":"US","REV_AT_EPOCH":"130","CENTER_NAME":"EARTH","OBJECT_TYPE":"PAYLOAD","GP_ID":"225071338","SITE":"AFETR","INCLINATION":"53.2154","MEAN_ANOMALY":"271.8259","RCS_SIZE":"LARGE","PERIOD":"95.441","PERIAPSIS":"539.129","LAUNCH_DATE":"2022-04-21","APOAPSIS":"540.654","OBJECT_NAME":"STARLINK-3772","CLASSIFICATION_TYPE":"U","BSTAR":"0.00323960000000","SEMIMAJOR_AXIS":"6918.027","DECAY_DATE":null,"EPOCH":"2023-02-10T22:17:02.999616","MEAN_MOTION":"15.08792134","EPHEMERIS_TYPE":"0","OBJECT_ID":"2022-041AF","ELEMENT_SET_NO":"999","MEAN_MOTION_DDOT":"0.0000000000000","TLE_LINE2":"2 52290  53.2154  99.4588 0001102 106.0526 271.8259 15.08792134  1305","RA_OF_ASC_NODE":"99.4588","ARG_OF_PERICENTER":"106.0526","REF_FRAME":"TEME","FILE":"3785071","NORAD_CAT_ID":"52290","TIME_SYSTEM":"UTC","ECCENTRICITY":"0.00011020","MEAN_ELEMENT_THEORY":"SGP4","TLE_LINE1":"1 52290U 22041AF  23041.92850694  .00051580  00000-0  32396-2 0  9994","MEAN_MOTION_DOT":"0.00051580"},{"ELEMENT_SET_NO":"999","MEAN_MOTION_DDOT":"0.0000000000000","TLE_LINE2":"2 52291  53.2181  99.6503 0000897  96.1633 263.9462 15.08834888 44996","FILE":"3785071","REF_FRAME":"TEME","NORAD_CAT_ID":"52291","TIME_SYSTEM":"UTC","RA_OF_ASC_NODE":"99.6503","ARG_OF_PERICENTER":"96.1633","ECCENTRICITY":"0.00008970","MEAN_MOTION_DOT":"0.00002583","TLE_LINE1":"1 52291U 22041AG  23041.87003611  .00002583  00000-0  18030-3 0  9997","MEAN_ELEMENT_THEORY":"SGP4","REV_AT_EPOCH":"4499","COUNTRY_CODE":"US","CENTER_NAME":"EARTH","SITE":"AFETR","INCLINATION":"53.2181","RCS_SIZE":"LARGE","MEAN_ANOMALY":"263.9462","PERIOD":"95.438","OBJECT_TYPE":"PAYLOAD","GP_ID":"225071089","CLASSIFICATION_TYPE":"U","OBJECT_NAME":"STARLINK-3773","SEMIMAJOR_AXIS":"6917.896","BSTAR":"0.00018030000000","PERIAPSIS":"539.140","APOAPSIS":"540.382","LAUNCH_DATE":"2022-04-21","EPHEMERIS_TYPE":"0","OBJECT_ID":"2022-041AG","DECAY_DATE":null,"EPOCH":"2023-02-10T20:52:51.119904","MEAN_MOTION":"15.08834888"}];
